[{"OBJECT_NAME":"FALCONSAT-6","OBJECT_ID":"2018-099BK","EPOCH":"2026-03-09T17:24:38.352096","MEAN_MOTION":15.26532865,"ECCENTRICITY":0.00143698,"INCLINATION":97.3865,"RA_OF_ASC_NODE":145.8165,"ARG_OF_PERICENTER":297.0944,"MEAN_ANOMALY":181.0714,"EPHEMERIS_TYPE":0,"CLASSIFICATION_TYPE":"U","NORAD_CAT_ID":43815,"ELEMENT_SET_NO":999,"REV_AT_EPOCH":39855,"BSTAR":0.00019476898,"MEAN_MOTION_DOT":5.029e-5,"MEAN_MOTION_DDOT":0},{"OBJECT_NAME":"STARLINK-35818","OBJECT_ID":"2025-265AA","EPOCH":"2026-03-09T22:04:38.697312","MEAN_MOTION":15.27597899,"ECCENTRICITY":0.00011308,"INCLINATION":42.9979,"RA_OF_ASC_NODE":277.0618,"ARG_OF_PERICENTER":295.7589,"MEAN_ANOMALY":64.3146,"EPHEMERIS_TYPE":0,"CLASSIFICATION_TYPE":"U","NORAD_CAT_ID":66540,"ELEMENT_SET_NO":999,"REV_AT_EPOCH":1714,"BSTAR":0.0010790483,"MEAN_MOTION_DOT":0.00029566,"MEAN_MOTION_DDOT":0}]
